1 45587U 20025BJ  23257.08940810  .00010452  00000-0  71960-3 0  9995
2 45587  53.0543 190.9973 0001458  98.0810 262.0344 15.06397970188110
1 45587U 20025BJ  23258.08462586  .00000603  00000-0  59406-4 0  9994
2 45587  53.0546 186.5280 0001431  91.5580 268.5573 15.06385800188864
1 45587U 20025BJ  23258.08462586  .00000603  00000-0  59406-4 0  9994
2 45587  53.0546 186.5280 0001431  91.5580 268.5573 15.06385800188268
1 45587U 20025BJ  23259.07981966  .00021222  00000-0  14380-2 0  9992
2 45587  53.0548 182.0619 0001385  93.8676 266.2471 15.06433481189011
1 45587U 20025BJ  23259.07981966  .00021222  00000-0  14380-2 0  9992
2 45587  53.0548 182.0619 0001385  93.8676 266.2471 15.06433481188414
1 45587U 20025BJ  23259.74328631  .00007344  00000-0  51116-3 0  9998
2 45587  53.0546 179.0841 0001485  91.4533 268.6626 15.06418250188518
1 45587U 20025BJ  23260.07502519  .00024728  00000-0  16735-2 0  9997
2 45587  53.0549 177.5950 0001352  82.4819 277.6324 15.06392988188564
1 45587U 20025BJ  23260.20771947  .00027801  00000-0  18778-2 0  9999
2 45587  53.0549 176.9988 0001348  79.4079 280.7062 15.06402581189181
1 45587U 20025BJ  23261.07021257  .00037251  00000-0  25030-2 0  9996
2 45587  53.0542 173.1270 0001319  85.4196 274.6943 15.06452456189313
1 45587U 20025BJ  23261.07021257  .00037251  00000-0  25030-2 0  9996
2 45587  53.0542 173.1270 0001319  85.4196 274.6943 15.06452456188716
1 45587U 20025BJ  23262.06542159  .00020969  00000-0  14223-2 0  9995
2 45587  53.0534 168.6593 0001539  90.9057 269.2108 15.06403281188866
1 45587U 20025BJ  23262.99427487  .00007980  00000-0  55447-3 0  9995
2 45587  53.0530 164.4918 0001402 116.7523 243.3610 15.06368743189002
1 45587U 20025BJ  23263.45871797  .00000493  00000-0  52052-4 0  9996
2 45587  53.0528 162.4037 0001396  81.6338 278.4809 15.06359873189671
1 45587U 20025BJ  23263.45871797  .00000493  00000-0  52052-4 0  9996
2 45587  53.0528 162.4037 0001396  81.6338 278.4809 15.06359873189075
1 45587U 20025BJ  23263.92315551  .00003582  00000-0  25947-3 0  9993
2 45587  53.0528 160.3180 0001393  83.3652 276.7495 15.06368577189743
1 45587U 20025BJ  23264.12219841  .00015252  00000-0  10411-2 0  9997
2 45587  53.0538 159.4249 0001540  86.4553 273.6612 15.06383097189771
1 45587U 20025BJ  23264.12219841  .00015252  00000-0  10411-2 0  9997
2 45587  53.0538 159.4249 0001540  86.4553 273.6612 15.06383097189175
1 45587U 20025BJ  23264.91835021  .00027615  00000-0  18636-2 0  9991
2 45587  53.0538 155.8519 0001388  93.3545 266.7602 15.06438210189892
1 45587U 20025BJ  23264.98469522  .00028546  00000-0  19253-2 0  9997
2 45587  53.0539 155.5548 0001390  91.3138 268.8010 15.06442992189305
1 45587U 20025BJ  23265.11738403  .00027818  00000-0  18765-2 0  9998
2 45587  53.0539 154.9590 0001373  91.1869 268.9277 15.06450982189927
1 45587U 20025BJ  23265.71450974  .00019756  00000-0  13410-2 0  9992
2 45587  53.0540 152.2779 0001409  91.0109 269.1041 15.06412920189411
1 45587U 20025BJ  23265.91355204  .00026013  00000-0  17585-2 0  9995
2 45587  53.0538 151.3846 0001206  76.9863 283.1260 15.06405918190046
1 45587U 20025BJ  23265.97989915  .00026627  00000-0  17996-2 0  9990
2 45587  53.0538 151.0868 0001284  76.4901 283.6231 15.06402096190059
1 45587U 20025BJ  23265.97989915  .00026627  00000-0  17996-2 0  9990
2 45587  53.0538 151.0868 0001284  76.4901 283.6231 15.06402096189451
1 45587U 20025BJ  23266.64336086  .00025311  00000-0  17107-2 0  9993
2 45587  53.0538 148.1079 0001249  76.4067 283.7061 15.06428695189552
1 45587U 20025BJ  23267.04142944  .00022429  00000-0  15179-2 0  9990
2 45587  53.0539 146.3220 0001229  81.4341 278.6788 15.06448339190211
1 45587U 20025BJ  23267.90395181  .00015287  00000-0  10437-2 0  9994
2 45587  53.0536 142.4504 0001068  89.2542 270.8570 15.06373100190340
1 45587U 20025BJ  23268.03664946  .00022803  00000-0  15462-2 0  9992
2 45587  53.0537 141.8552 0001216  88.0376 272.0752 15.06366605189766
1 45587U 20025BJ  23268.36838504  .00047792  00000-0  32054-2 0  9991
2 45587  53.0536 140.3654 0001096 107.8193 252.2916 15.06403230190417
1 45587U 20025BJ  23268.36838504  .00047792  00000-0  32054-2 0  9991
2 45587  53.0536 140.3654 0001096 107.8193 252.2916 15.06403230189819
1 45587U 20025BJ  23268.89915626  .00021777  00000-0  14757-2 0  9995
2 45587  53.0530 137.9813 0001070 112.9007 247.2095 15.06416841190495
1 45587U 20025BJ  23269.03184714  .00023647  00000-0  16000-2 0  9999
2 45587  53.0530 137.3844 0001072 116.8387 243.2711 15.06424484190515
1 45587U 20025BJ  23269.03184714  .00023647  00000-0  16000-2 0  9999
2 45587  53.0530 137.3844 0001072 116.8387 243.2711 15.06424484189917
1 45587U 20025BJ  23269.89437303  .00008190  00000-0  56824-3 0  9993
2 45587  53.0534 133.5151 0001288  81.6200 278.4935 15.06390769190640
1 45587U 20025BJ  23270.09341811  .00018608  00000-0  12653-2 0  9991
2 45587  53.0536 132.6212 0001389  73.8222 286.2920 15.06386095190074
1 45587U 20025BJ  23270.35880497  .00019990  00000-0  13572-2 0  9994
2 45587  53.0534 131.4289 0001282  92.8783 267.2353 15.06397529190712
1 45587U 20025BJ  23271.61939067  .00008751  00000-0  60546-3 0  9999
2 45587  53.0536 125.7686 0001336  93.1700 266.9442 15.06410498190901
1 45587U 20025BJ  23271.75208382  .00003219  00000-0  23489-3 0  9992
2 45587  53.0540 125.1702 0001615 116.0912 244.0243 15.06405366190329
1 45587U 20025BJ  23271.88477974  .00003456  00000-0  25077-3 0  9999
2 45587  53.0535 124.5767 0001259  96.1807 263.9325 15.06399633190940
1 45587U 20025BJ  23272.01747383  .00005373  00000-0  37932-3 0  9992
2 45587  53.0535 123.9815 0001100  86.1864 273.9250 15.06400400190969
1 45587U 20025BJ  23272.01747383  .00005373  00000-0  37932-3 0  9992
2 45587  53.0535 123.9815 0001100  86.1864 273.9250 15.06400400190363
1 45587U 20025BJ  23272.81362862  .00013330  00000-0  91156-3 0  9995
2 45587  53.0529 120.4077 0001130  79.1660 280.9456 15.06422021191086
1 45587U 20025BJ  23272.81362862  .00013330  00000-0  91156-3 0  9995
2 45587  53.0529 120.4077 0001130  79.1660 280.9456 15.06422021190489
1 45587U 20025BJ  23273.27805247  .00003957  00000-0  28434-3 0  9998
2 45587  53.0530 118.3219 0001511  81.9376 278.1785 15.06407479190555
1 45587U 20025BJ  23273.74248597 -.00002233  00000-0 -13106-3 0  9997
2 45587  53.0526 116.2376 0001285  86.4606 273.6530 15.06394083190627
1 45587U 20025BJ  23274.00787472  .00008444  00000-0  58514-3 0  9997
2 45587  53.0528 115.0459 0001218  96.6155 263.4973 15.06397871191263
1 45587U 20025BJ  23274.00787472  .00008444  00000-0  58514-3 0  9997
2 45587  53.0528 115.0459 0001218  96.6155 263.4973 15.06397871190666
1 45587U 20025BJ  23274.87037629  .00019892  00000-0  13495-2 0  9991
2 45587  53.0534 111.1739 0001210  90.8300 269.2828 15.06429514191395
1 45587U 20025BJ  23274.87037629  .00019892  00000-0  13495-2 0  9991
2 45587  53.0534 111.1739 0001210  90.8300 269.2828 15.06429514190798
1 45587U 20025BJ  23275.26845780  .00002213  00000-0  16744-3 0  9990
2 45587  53.0534 109.3856 0001245 100.8662 259.2467 15.06390282190852
1 45587U 20025BJ  23275.79923702  .00018095  00000-0  12308-2 0  9995
2 45587  53.0525 107.0038 0001399  86.6826 273.4323 15.06392720191536
1 45587U 20025BJ  23276.26366405  .00019769  00000-0  13420-2 0  9994
2 45587  53.0528 104.9190 0001414  84.6980 275.4170 15.06408635191604
1 45587U 20025BJ  23276.26366405  .00019769  00000-0  13420-2 0  9994
2 45587  53.0528 104.9190 0001414  84.6980 275.4170 15.06408635191008
1 45587U 20025BJ  23276.92712123  .00020758  00000-0  14070-2 0  9991
2 45587  53.0531 101.9402 0001417  84.2438 275.8713 15.06436321191709
1 45587U 20025BJ  23277.52424344  .00007678  00000-0  53354-3 0  9998
2 45587  53.0534  99.2597 0001423  84.8364 275.2788 15.06415892191792
1 45587U 20025BJ  23277.78963100  .00005142  00000-0  36378-3 0  9995
2 45587  53.0536  98.0677 0001259  89.6688 270.4445 15.06407854191830
1 45587U 20025BJ  23277.78963100  .00005142  00000-0  36378-3 0  9995
2 45587  53.0536  98.0677 0001259  89.6688 270.4445 15.06407854191234
1 45587U 20025BJ  23278.51945093  .00016236  00000-0  11063-2 0  9997
2 45587  53.0549  94.7931 0001868  79.4346 280.6853 15.06402765191948
1 45587U 20025BJ  23278.78483426  .00003770  00000-0  27182-3 0  9992
2 45587  53.0554  93.6029 0001524  93.4321 266.6842 15.06406838191989
1 45587U 20025BJ  23278.78483426  .00003770  00000-0  27182-3 0  9992
2 45587  53.0554  93.6029 0001524  93.4321 266.6842 15.06406838191383
1 45587U 20025BJ  23279.51466096 -.00001289  00000-0 -67655-4 0  9993
2 45587  53.0558  90.3262 0001493 100.3588 259.7569 15.06384788192095
1 45587U 20025BJ  23279.78004975  .00000303  00000-0  39241-4 0  9990
2 45587  53.0555  89.1350 0001454 101.3184 258.7968 15.06388294192139
1 45587U 20025BJ  23279.78004975  .00000303  00000-0  39241-4 0  9990
2 45587  53.0555  89.1350 0001454 101.3184 258.7968 15.06388294191532
1 45587U 20025BJ  23279.91274307  .00002066  00000-0  15759-3 0  9998
2 45587  53.0555  88.5386 0001451  97.4168 262.6986 15.06393033192158
1 45587U 20025BJ  23280.77524461  .00019096  00000-0  12964-2 0  9998
2 45587  53.0542  84.6665 0001282  97.2101 262.9034 15.06427963191682
1 45587U 20025BJ  23280.84158977  .00020563  00000-0  13941-2 0  9998
2 45587  53.0541  84.3684 0001263  96.6483 263.4650 15.06432565192296
1 45587U 20025BJ  23281.43871789  .00006805  00000-0  47520-3 0  9991
2 45587  53.0539  81.6885 0002479  81.4834 278.6436 15.06409410192381
1 45587U 20025BJ  23281.43871789  .00006805  00000-0  47520-3 0  9991
2 45587  53.0539  81.6885 0002479  81.4834 278.6436 15.06409410191784
1 45587U 20025BJ  23281.77045421  .00024042  00000-0  16276-2 0  9990
2 45587  53.0540  80.1994 0001556  80.7057 279.4108 15.06395906191830
1 45587U 20025BJ  23281.83680109  .00026505  00000-0  17917-2 0  9994
2 45587  53.0540  79.9015 0001556  79.7929 280.3235 15.06397981192441
1 45587U 20025BJ  23282.43391522  .00026123  00000-0  17647-2 0  9995
2 45587  53.0536  77.2198 0001583  80.6452 279.4716 15.06430647192531
